HULIANWANG DIGUI-113    
1 66923U 25285J   26064.28652847 -.00000210  00000+0 -18542-3 0  9995
2 66923  50.0098 158.3061 0000086 304.2863  55.8001 13.29330853 12249
HULIANWANG DIGUI-114    
1 66953U 25287A   26064.26326894  .00000109  00000+0  21930-3 0  9998
2 66953  86.4974 317.5051 0001970  80.5698 279.5659 13.24415742 11585
HULIANWANG DIGUI-115    
1 66954U 25287B   26064.25569684  .00000104  00000+0  20845-3 0  9993
2 66954  86.4990 317.5167 0002054  79.9948 280.1418 13.24415802 11584
HULIANWANG DIGUI-116    
1 66955U 25287C   26064.24815001  .00000094  00000+0  18565-3 0  9994
2 66955  86.4930 317.4558 0002060  79.9767 280.1600 13.24415883 11580
HULIANWANG DIGUI-117    
1 66956U 25287D   26064.24063482  .00000089  00000+0  17384-3 0  9995
2 66956  86.4990 317.5100 0001268  21.3858 338.7329 13.24414029 11581
HULIANWANG DIGUI-118    
1 66957U 25287E   26064.23306387  .00000084  00000+0  16251-3 0  9996
2 66957  86.4967 317.4839 0002039  79.5602 280.5761 13.24415371 11588
HULIANWANG DIGUI-119    
1 67059U 25295A   26063.84968861 -.00000063  00000+0  10811-3 0  9990
2 67059  50.0043  40.9840 0000230 333.6345  26.4524 13.49182432 11606
HULIANWANG DIGUI-120    
1 67060U 25295B   26063.02193479 -.00000064  00000+0  10563-3 0  9992
2 67060  50.0045  43.9402 0000532 232.7248 127.3584 13.50312018 11494
HULIANWANG DIGUI-121    
1 67061U 25295C   26063.47307333 -.00000063  00000+0  10685-3 0  9992
2 67061  50.0010  42.2948 0000513 230.7953 129.2882 13.49344229 11550
HULIANWANG DIGUI-122    
1 67062U 25295D   26063.68139713 -.00000063  00000+0  10690-3 0  9997
2 67062  50.0036  41.4278 0000493 322.7161  37.3686 13.49722832 11580
HULIANWANG DIGUI-123    
1 67063U 25295E   26063.82241851 -.00000043  00000+0  13870-3 0  9992
2 67063  50.0046  40.8418 0000324 308.9409  51.1443 13.49679503 11609
HULIANWANG DIGUI-124    
1 67064U 25295F   26063.44608486 -.00000061  00000+0  11056-3 0  9996
2 67064  49.9987  42.1543 0001420   1.0031 359.0853 13.49900205 11550
HULIANWANG DIGUI-125    
1 67065U 25295G   26063.36545430 -.00000061  00000+0  11015-3 0  9992
2 67065  50.0019  42.3803 0001989  28.9203 331.1788 13.50013531 11546
HULIANWANG DIGUI-126    
1 67066U 25295H   26063.80238610 -.00000083  00000+0  76126-4 0  9990
2 67066  50.0001  40.6902 0000835  53.3551 306.7407 13.49977054 11606
HULIANWANG DIGUI-127    
1 67067U 25295J   26063.27371189 -.00000317  00000+0 -29115-3 0  9997
2 67067  50.0053  42.5703 0001308  40.5730 319.5249 13.49908062 11538
HULIANWANG DIGUI-128    
1 67236U 25311A   26064.14414762 -.00000044  00000+0  16271-3 0  9991
2 67236  50.0066 128.7172 0000955   8.7924 351.2967 13.34168672  9508
